STARLINK-3826           
1 52347U 22045S   26062.75771912  .00000812  00000+0  69102-4 0  9991
2 52347  53.2170 225.7592 0001223  94.1851 265.9281 15.08838504214887
STARLINK-3829           
1 52348U 22045T   26062.73835757 -.00000715  00000+0 -26858-4 0  9993
2 52348  53.2165 225.8377 0001114  99.0154 261.0964 15.08831823214885
STARLINK-3819           
1 52349U 22045U   26062.68317636  .00005130  00000+0  34027-3 0  9999
2 52349  53.2170 226.0871 0001222  88.2046 271.9087 15.08827156214873
STARLINK-3754           
1 52350U 22045V   26062.73467958 -.00000310  00000+0 -13810-5 0  9996
2 52350  53.2166 225.8557 0001359  94.3316 265.7832 15.08838554214881
STARLINK-3838           
1 52352U 22045X   26062.72363655  .00000760  00000+0  65851-4 0  9994
2 52352  53.2164 225.9044 0001288  88.6276 271.4863 15.08843065214886
STARLINK-3807           
1 52353U 22045Y   26062.66475664 -.00000005  00000+0  17766-4 0  9997
2 52353  53.2165 226.1682 0001346  98.2574 261.8571 15.08839677214874
STARLINK-3877           
1 52355U 22045AA  26062.66107799  .00000126  00000+0  25985-4 0  9995
2 52355  53.2164 226.1843 0001240 100.6229 259.4903 15.08840387214874
STARLINK-3801           
1 52356U 22045AB  26062.71628109  .00000659  00000+0  59501-4 0  9997
2 52356  53.2173 225.9657 0001209  98.4821 261.6309 15.08846046214886
STARLINK-3821           
1 52357U 22045AC  26062.71995979  .00000345  00000+0  39793-4 0  9993
2 52357  53.2171 225.9213 0001416  86.3551 273.7603 15.08843263214888
STARLINK-3837           
1 52358U 22045AD  26062.70155925  .00001156  00000+0  90696-4 0  9992
2 52358  53.2154 226.0023 0001166  87.8415 272.2710 15.08840361214887
STARLINK-3853           
1 52359U 22045AE  26062.71723360  .00000464  00000+0  47244-4 0  9990
2 52359  53.2174 225.9436 0001350  84.4117 275.7029 15.08845641214880
STARLINK-3728           
1 52361U 22045AG  26062.70892873  .00000201  00000+0  30732-4 0  9991
2 52361  53.2177 225.9704 0001551  90.2379 269.8791 15.08839622214884
STARLINK-3848           
1 52362U 22045AH  26062.62519842 -.00000213  00000+0  47203-5 0  9991
2 52362  53.2169 216.3453 0001335  90.2592 269.8553 15.08841123215008
STARLINK-3830           
1 52363U 22045AJ  26062.70523986  .00002371  00000+0  16698-3 0  9993
2 52363  53.2153 225.9862 0001368  89.3279 270.7869 15.08841119214880
STARLINK-3820           
1 52364U 22045AK  26062.67671448  .00004096  00000+0  27517-3 0  9995
2 52364  53.2160 216.0272 0001162  86.7297 273.3828 15.08858437215019
STARLINK-3874           
1 52365U 22045AL  26062.69879405 -.00005072  00000+0 -30061-3 0  9996
2 52365  53.2169 216.0158 0001213  89.7882 270.3249 15.08863845215015
STARLINK-3808           
1 52366U 22045AM  26062.68039971  .00000508  00000+0  50006-4 0  9991
2 52366  53.2170 216.0975 0001287  87.5644 272.5495 15.08842317215016
