[{"OBJECT_NAME":"STARLINK-3826","OBJECT_ID":"2022-045S","EPOCH":"2026-03-03T18:11:06.931968","MEAN_MOTION":15.08838504,"ECCENTRICITY":0.0001223,"INCLINATION":53.217,"RA_OF_ASC_NODE":225.7592,"ARG_OF_PERICENTER":94.1851,"MEAN_ANOMALY":265.9281,"EPHEMERIS_TYPE":0,"CLASSIFICATION_TYPE":"U","NORAD_CAT_ID":52347,"ELEMENT_SET_NO":999,"REV_AT_EPOCH":21488,"BSTAR":6.9102e-5,"MEAN_MOTION_DOT":8.12e-6,"MEAN_MOTION_DDOT":0},{"OBJECT_NAME":"STARLINK-3829","OBJECT_ID":"2022-045T","EPOCH":"2026-03-03T17:43:14.094048","MEAN_MOTION":15.08831823,"ECCENTRICITY":0.0001114,"INCLINATION":53.2165,"RA_OF_ASC_NODE":225.8377,"ARG_OF_PERICENTER":99.0154,"MEAN_ANOMALY":261.0964,"EPHEMERIS_TYPE":0,"CLASSIFICATION_TYPE":"U","NORAD_CAT_ID":52348,"ELEMENT_SET_NO":999,"REV_AT_EPOCH":21488,"BSTAR":-2.6858e-5,"MEAN_MOTION_DOT":-7.15e-6,"MEAN_MOTION_DDOT":0},{"OBJECT_NAME":"STARLINK-3819","OBJECT_ID":"2022-045U","EPOCH":"2026-03-03T16:23:46.437504","MEAN_MOTION":15.08827156,"ECCENTRICITY":0.0001222,"INCLINATION":53.217,"RA_OF_ASC_NODE":226.0871,"ARG_OF_PERICENTER":88.2046,"MEAN_ANOMALY":271.9087,"EPHEMERIS_TYPE":0,"CLASSIFICATION_TYPE":"U","NORAD_CAT_ID":52349,"ELEMENT_SET_NO":999,"REV_AT_EPOCH":21487,"BSTAR":0.00034027,"MEAN_MOTION_DOT":5.13e-5,"MEAN_MOTION_DDOT":0},{"OBJECT_NAME":"STARLINK-3754","OBJECT_ID":"2022-045V","EPOCH":"2026-03-03T17:37:56.315712","MEAN_MOTION":15.08838554,"ECCENTRICITY":0.0001359,"INCLINATION":53.2166,"RA_OF_ASC_NODE":225.8557,"ARG_OF_PERICENTER":94.3316,"MEAN_ANOMALY":265.7832,"EPHEMERIS_TYPE":0,"CLASSIFICATION_TYPE":"U","NORAD_CAT_ID":52350,"ELEMENT_SET_NO":999,"REV_AT_EPOCH":21488,"BSTAR":-1.381e-6,"MEAN_MOTION_DOT":-3.1e-6,"MEAN_MOTION_DDOT":0},{"OBJECT_NAME":"STARLINK-3838","OBJECT_ID":"2022-045X","EPOCH":"2026-03-03T17:22:02.197920","MEAN_MOTION":15.08843065,"ECCENTRICITY":0.0001288,"INCLINATION":53.2164,"RA_OF_ASC_NODE":225.9044,"ARG_OF_PERICENTER":88.6276,"MEAN_ANOMALY":271.4863,"EPHEMERIS_TYPE":0,"CLASSIFICATION_TYPE":"U","NORAD_CAT_ID":52352,"ELEMENT_SET_NO":999,"REV_AT_EPOCH":21488,"BSTAR":6.5851e-5,"MEAN_MOTION_DOT":7.6e-6,"MEAN_MOTION_DDOT":0},{"OBJECT_NAME":"STARLINK-3807","OBJECT_ID":"2022-045Y","EPOCH":"2026-03-03T15:57:14.973696","MEAN_MOTION":15.08839677,"ECCENTRICITY":0.0001346,"INCLINATION":53.2165,"RA_OF_ASC_NODE":226.1682,"ARG_OF_PERICENTER":98.2574,"MEAN_ANOMALY":261.8571,"EPHEMERIS_TYPE":0,"CLASSIFICATION_TYPE":"U","NORAD_CAT_ID":52353,"ELEMENT_SET_NO":999,"REV_AT_EPOCH":21487,"BSTAR":1.7766e-5,"MEAN_MOTION_DOT":-5.0e-8,"MEAN_MOTION_DDOT":0},{"OBJECT_NAME":"STARLINK-3877","OBJECT_ID":"2022-045AA","EPOCH":"2026-03-03T15:51:57.138336","MEAN_MOTION":15.08840387,"ECCENTRICITY":0.000124,"INCLINATION":53.2164,"RA_OF_ASC_NODE":226.1843,"ARG_OF_PERICENTER":100.6229,"MEAN_ANOMALY":259.4903,"EPHEMERIS_TYPE":0,"CLASSIFICATION_TYPE":"U","NORAD_CAT_ID":52355,"ELEMENT_SET_NO":999,"REV_AT_EPOCH":21487,"BSTAR":2.5985e-5,"MEAN_MOTION_DOT":1.26e-6,"MEAN_MOTION_DDOT":0},{"OBJECT_NAME":"STARLINK-3801","OBJECT_ID":"2022-045AB","EPOCH":"2026-03-03T17:11:26.686176","MEAN_MOTION":15.08846046,"ECCENTRICITY":0.0001209,"INCLINATION":53.2173,"RA_OF_ASC_NODE":225.9657,"ARG_OF_PERICENTER":98.4821,"MEAN_ANOMALY":261.6309,"EPHEMERIS_TYPE":0,"CLASSIFICATION_TYPE":"U","NORAD_CAT_ID":52356,"ELEMENT_SET_NO":999,"REV_AT_EPOCH":21488,"BSTAR":5.9501e-5,"MEAN_MOTION_DOT":6.59e-6,"MEAN_MOTION_DDOT":0},{"OBJECT_NAME":"STARLINK-3821","OBJECT_ID":"2022-045AC","EPOCH":"2026-03-03T17:16:44.525856","MEAN_MOTION":15.08843263,"ECCENTRICITY":0.0001416,"INCLINATION":53.2171,"RA_OF_ASC_NODE":225.9213,"ARG_OF_PERICENTER":86.3551,"MEAN_ANOMALY":273.7603,"EPHEMERIS_TYPE":0,"CLASSIFICATION_TYPE":"U","NORAD_CAT_ID":52357,"ELEMENT_SET_NO":999,"REV_AT_EPOCH":21488,"BSTAR":3.9793e-5,"MEAN_MOTION_DOT":3.45e-6,"MEAN_MOTION_DDOT":0},{"OBJECT_NAME":"STARLINK-3837","OBJECT_ID":"2022-045AD","EPOCH":"2026-03-03T16:50:14.719200","MEAN_MOTION":15.08840361,"ECCENTRICITY":0.0001166,"INCLINATION":53.2154,"RA_OF_ASC_NODE":226.0023,"ARG_OF_PERICENTER":87.8415,"MEAN_ANOMALY":272.271,"EPHEMERIS_TYPE":0,"CLASSIFICATION_TYPE":"U","NORAD_CAT_ID":52358,"ELEMENT_SET_NO":999,"REV_AT_EPOCH":21488,"BSTAR":9.0696e-5,"MEAN_MOTION_DOT":1.156e-5,"MEAN_MOTION_DDOT":0},{"OBJECT_NAME":"STARLINK-3853","OBJECT_ID":"2022-045AE","EPOCH":"2026-03-03T17:12:48.983040","MEAN_MOTION":15.08845641,"ECCENTRICITY":0.000135,"INCLINATION":53.2174,"RA_OF_ASC_NODE":225.9436,"ARG_OF_PERICENTER":84.4117,"MEAN_ANOMALY":275.7029,"EPHEMERIS_TYPE":0,"CLASSIFICATION_TYPE":"U","NORAD_CAT_ID":52359,"ELEMENT_SET_NO":999,"REV_AT_EPOCH":21488,"BSTAR":4.7244e-5,"MEAN_MOTION_DOT":4.64e-6,"MEAN_MOTION_DDOT":0},{"OBJECT_NAME":"STARLINK-3728","OBJECT_ID":"2022-045AG","EPOCH":"2026-03-03T17:00:51.442272","MEAN_MOTION":15.08839622,"ECCENTRICITY":0.0001551,"INCLINATION":53.2177,"RA_OF_ASC_NODE":225.9704,"ARG_OF_PERICENTER":90.2379,"MEAN_ANOMALY":269.8791,"EPHEMERIS_TYPE":0,"CLASSIFICATION_TYPE":"U","NORAD_CAT_ID":52361,"ELEMENT_SET_NO":999,"REV_AT_EPOCH":21488,"BSTAR":3.0732e-5,"MEAN_MOTION_DOT":2.01e-6,"MEAN_MOTION_DDOT":0},{"OBJECT_NAME":"STARLINK-3848","OBJECT_ID":"2022-045AH","EPOCH":"2026-03-03T15:00:17.143488","MEAN_MOTION":15.08841123,"ECCENTRICITY":0.0001335,"INCLINATION":53.2169,"RA_OF_ASC_NODE":216.3453,"ARG_OF_PERICENTER":90.2592,"MEAN_ANOMALY":269.8553,"EPHEMERIS_TYPE":0,"CLASSIFICATION_TYPE":"U","NORAD_CAT_ID":52362,"ELEMENT_SET_NO":999,"REV_AT_EPOCH":21500,"BSTAR":4.7203e-6,"MEAN_MOTION_DOT":-2.13e-6,"MEAN_MOTION_DDOT":0},{"OBJECT_NAME":"STARLINK-3830","OBJECT_ID":"2022-045AJ","EPOCH":"2026-03-03T16:55:32.723904","MEAN_MOTION":15.08841119,"ECCENTRICITY":0.0001368,"INCLINATION":53.2153,"RA_OF_ASC_NODE":225.9862,"ARG_OF_PERICENTER":89.3279,"MEAN_ANOMALY":270.7869,"EPHEMERIS_TYPE":0,"CLASSIFICATION_TYPE":"U","NORAD_CAT_ID":52363,"ELEMENT_SET_NO":999,"REV_AT_EPOCH":21488,"BSTAR":0.00016698,"MEAN_MOTION_DOT":2.371e-5,"MEAN_MOTION_DDOT":0},{"OBJECT_NAME":"STARLINK-3820","OBJECT_ID":"2022-045AK","EPOCH":"2026-03-03T16:14:28.131072","MEAN_MOTION":15.08858437,"ECCENTRICITY":0.0001162,"INCLINATION":53.216,"RA_OF_ASC_NODE":216.0272,"ARG_OF_PERICENTER":86.7297,"MEAN_ANOMALY":273.3828,"EPHEMERIS_TYPE":0,"CLASSIFICATION_TYPE":"U","NORAD_CAT_ID":52364,"ELEMENT_SET_NO":999,"REV_AT_EPOCH":21501,"BSTAR":0.00027517,"MEAN_MOTION_DOT":4.096e-5,"MEAN_MOTION_DDOT":0},{"OBJECT_NAME":"STARLINK-3874","OBJECT_ID":"2022-045AL","EPOCH":"2026-03-03T16:46:15.805920","MEAN_MOTION":15.08863845,"ECCENTRICITY":0.0001213,"INCLINATION":53.2169,"RA_OF_ASC_NODE":216.0158,"ARG_OF_PERICENTER":89.7882,"MEAN_ANOMALY":270.3249,"EPHEMERIS_TYPE":0,"CLASSIFICATION_TYPE":"U","NORAD_CAT_ID":52365,"ELEMENT_SET_NO":999,"REV_AT_EPOCH":21501,"BSTAR":-0.00030061,"MEAN_MOTION_DOT":-5.072e-5,"MEAN_MOTION_DDOT":0},{"OBJECT_NAME":"STARLINK-3808","OBJECT_ID":"2022-045AM","EPOCH":"2026-03-03T16:19:46.534944","MEAN_MOTION":15.08842317,"ECCENTRICITY":0.0001287,"INCLINATION":53.217,"RA_OF_ASC_NODE":216.0975,"ARG_OF_PERICENTER":87.5644,"MEAN_ANOMALY":272.5495,"EPHEMERIS_TYPE":0,"CLASSIFICATION_TYPE":"U","NORAD_CAT_ID":52366,"ELEMENT_SET_NO":999,"REV_AT_EPOCH":21501,"BSTAR":5.0006e-5,"MEAN_MOTION_DOT":5.08e-6,"MEAN_MOTION_DDOT":0}]
